NORAD_CAT_ID,OBJECT_NAME,OBJECT_TYPE,EPOCH,MEAN_MOTION,ECCENTRICITY,INCLINATION,RA_OF_ASC_NODE,ARG_OF_PERICENTER,MEAN_ANOMALY,BSTAR,MEAN_MOTION_DOT,MEAN_MOTION_DDOT,TLE_LINE0,TLE_LINE1,TLE_LINE2,SEMIMAJOR_AXIS,PERIOD,APOGEE,PERIGEE,DECAYED
53820.0,STARLINK-4758,PAYLOAD,2023-06-11 13:54:07,15.08837697,0.0001165,53.2157,122.988,83.5988,276.5136,9.8572e-06,-1.31e-06,0.0,0 STARLINK-4758,1 53820U 22114C   23162.57924925 -.00000131  00000-0  98572-5 0  9997,2 53820  53.2157 122.9880 0001165  83.5988 276.5136 15.08837697 41545,6917.887,95.438,540.558,538.946,0.0
53820.0,STARLINK-4758,PAYLOAD,2023-06-11 17:04:53,15.08834926,0.0001157,53.2157,122.3934,83.4838,276.6285,3.8498e-05,3.25e-06,0.0,0 STARLINK-4758,1 53820U 22114C   23162.71173009  .00000325  00000-0  38498-4 0  9996,2 53820  53.2157 122.3934 0001157  83.4838 276.6285 15.08834926 41563,6917.896,95.438,540.561,538.96,0.0
53820.0,STARLINK-4758,PAYLOAD,2023-06-12 04:12:34,15.08842026,0.0001153,53.2157,120.3121,84.2642,275.8481,8.5483e-05,1.073e-05,0.0,0 STARLINK-4758,1 53820U 22114C   23163.17540471  .00001073  00000-0  85483-4 0  9995,2 53820  53.2157 120.3121 0001153  84.2642 275.8481 15.08842026 41634,6917.874,95.437,540.537,538.942,0.0
53820.0,STARLINK-4758,PAYLOAD,2023-06-12 21:41:50,15.088263,0.0001168,53.2158,117.0414,85.4194,274.6932,1.3248e-06,-2.67e-06,0.0,0 STARLINK-4758,1 53820U 22114C   23163.90405958 -.00000267  00000-0  13248-5 0  9992,2 53820  53.2158 117.0414 0001168  85.4194 274.6932 15.08826300 41741,6917.922,95.438,540.595,538.979,0.0
53820.0,STARLINK-4758,PAYLOAD,2023-06-13 04:03:22,15.08832363,0.0001173,53.2159,115.8522,86.9482,273.1644,4.9479e-05,5e-06,0.0,0 STARLINK-4758,1 53820U 22114C   23164.16901562  .00000500  00000-0  49479-4 0  9996,2 53820  53.2159 115.8522 0001173  86.9482 273.1644 15.08832363 41245,6917.904,95.438,540.58,538.957,0.0
53820.0,STARLINK-4758,PAYLOAD,2023-06-13 07:14:09,15.08835149,0.0001187,53.2158,115.2572,85.8817,274.231,5.6973e-05,6.19e-06,0.0,0 STARLINK-4758,1 53820U 22114C   23164.30149410  .00000619  00000-0  56973-4 0  9996,2 53820  53.2158 115.2572 0001187  85.8817 274.2310 15.08835149 41807,6917.895,95.438,540.581,538.939,0.0
53820.0,STARLINK-4758,PAYLOAD,2023-06-13 23:08:00,15.08835543,0.0001176,53.216,112.2835,93.6896,266.4231,1.7705e-06,-2.6e-06,0.0,0 STARLINK-4758,1 53820U 22114C   23164.96389710 -.00000260  00000-0  17705-5 0  9991,2 53820  53.2160 112.2835 0001176  93.6896 266.4231 15.08835543 41905,6917.894,95.438,540.573,538.945,0.0
53820.0,STARLINK-4758,PAYLOAD,2023-06-14 02:18:46,15.08838934,0.0001158,53.216,111.6885,95.1988,264.9136,1.7171e-05,-1.5e-07,0.0,0 STARLINK-4758,1 53820U 22114C   23165.09637476 -.00000015  00000-0  17171-4 0  9995,2 53820  53.2160 111.6885 0001158  95.1988 264.9136 15.08838934 41928,6917.884,95.438,540.55,538.948,0.0
53820.0,STARLINK-4758,PAYLOAD,2023-06-15 02:09:34,15.08836178,0.000111,53.2161,107.2274,98.8254,261.2863,5.4807e-05,5.84e-06,0.0,0 STARLINK-4758,1 53820U 22114C   23166.08997700  .00000584  00000-0  54807-4 0  9991,2 53820  53.2161 107.2274 0001110  98.8254 261.2863 15.08836178 41538,6917.892,95.438,540.525,538.989,0.0
53820.0,STARLINK-4758,PAYLOAD,2023-06-15 05:20:20,15.08838877,0.000111,53.2161,106.6326,98.7115,261.4002,7.4933e-05,9.05e-06,0.0,0 STARLINK-4758,1 53820U 22114C   23166.22245489  .00000905  00000-0  74933-4 0  9996,2 53820  53.2161 106.6326 0001110  98.7115 261.4002 15.08838877 42091,6917.884,95.438,540.517,538.981,0.0
53820.0,STARLINK-4758,PAYLOAD,2023-06-16 00:24:57,15.08844056,0.0001068,53.2162,103.0643,100.1504,259.9608,5.5802e-05,6.01e-06,0.0,0 STARLINK-4758,1 53820U 22114C   23167.01733213  .00000601  00000-0  55802-4 0  9998,2 53820  53.2162 103.0643 0001068 100.1504 259.9608 15.08844056 41670,6917.868,95.437,540.472,538.994,0.0
53820.0,STARLINK-4758,PAYLOAD,2023-06-16 05:11:06,15.08853801,0.0001214,53.217,102.1699,90.9386,269.1745,0.00012751,1.743e-05,0.0,0 STARLINK-4758,1 53820U 22114C   23167.21604363  .00001743  00000-0  12751-3 0  9996,2 53820  53.2170 102.1699 0001214  90.9386 269.1745 15.08853801 41704,6917.838,95.437,540.543,538.863,0.0
53820.0,STARLINK-4758,PAYLOAD,2023-06-16 13:08:02,15.08844379,0.0001293,53.2173,100.6812,89.1631,270.9509,5.5406e-05,5.94e-06,0.0,0 STARLINK-4758,1 53820U 22114C   23167.54725043  .00000594  00000-0  55406-4 0  9999,2 53820  53.2173 100.6812 0001293  89.1631 270.9509 15.08844379 42290,6917.867,95.437,540.626,538.838,0.0
53820.0,STARLINK-4758,PAYLOAD,2023-06-16 19:29:34,15.0884394,0.0001145,53.2162,99.4956,95.4248,264.6875,4.3832e-05,4.1e-06,0.0,0 STARLINK-4758,1 53820U 22114C   23167.81221002  .00000410  00000-0  43832-4 0  9992,2 53820  53.2162  99.4956 0001145  95.4248 264.6875 15.08843940 42336,6917.868,95.437,540.525,538.941,0.0
53820.0,STARLINK-4758,PAYLOAD,2023-06-17 12:58:49,15.0883956,0.0001128,53.2159,96.2246,95.1796,264.9325,-1.5807e-05,-5.39e-06,0.0,0 STARLINK-4758,1 53820U 22114C   23168.54085209 -.00000539  00000-0 -15807-4 0  9995,2 53820  53.2159  96.2246 0001128  95.1796 264.9325 15.08839560 42443,6917.882,95.438,540.527,538.966,0.0
53820.0,STARLINK-4758,PAYLOAD,2023-06-18 01:41:55,15.0883144,0.0001137,53.2169,93.8463,83.2936,276.8185,-0.00018265,-3.193e-05,0.0,0 STARLINK-4758,1 53820U 22114C   23169.07078577 -.00003193  00000-0 -18265-3 0  9993,2 53820  53.2169  93.8463 0001137  83.2936 276.8185 15.08831440 41985,6917.907,95.438,540.558,538.985,0.0
53820.0,STARLINK-4758,PAYLOAD,2023-06-18 04:52:41,15.088355,0.0001262,53.2161,93.251,99.7178,260.3957,-0.00013131,-2.377e-05,0.0,0 STARLINK-4758,1 53820U 22114C   23169.20326183 -.00002377  00000-0 -13131-3 0  9997,2 53820  53.2161  93.2510 0001262  99.7178 260.3957 15.08835500 42003,6917.894,95.438,540.632,538.886,0.0
53820.0,STARLINK-4758,PAYLOAD,2023-06-18 19:11:09,15.08839774,0.0001228,53.2164,90.5754,91.1095,269.0038,2.2699e-05,7.3e-07,0.0,0 STARLINK-4758,1 53820U 22114C   23169.79941520  .00000073  00000-0  22699-4 0  9998,2 53820  53.2164  90.5754 0001228  91.1095 269.0038 15.08839774 42094,6917.881,95.438,540.596,538.897,0.0
53820.0,STARLINK-4758,PAYLOAD,2023-06-19 04:43:27,15.08851436,0.0001242,53.2165,88.7901,92.8316,267.2818,8.2582e-05,1.027e-05,0.0,0 STARLINK-4758,1 53820U 22114C   23170.19684580  .00001027  00000-0  82582-4 0  9991,2 53820  53.2165  88.7901 0001242  92.8316 267.2818 15.08851436 42150,6917.845,95.437,540.57,538.851,0.0
53820.0,STARLINK-4758,PAYLOAD,2023-06-20 01:23:29,15.08828997,0.0001092,53.2166,84.9256,88.8614,271.2503,0.00014733,2.057e-05,0.0,0 STARLINK-4758,1 53820U 22114C   23171.05798234  .00002057  00000-0  14733-3 0  9995,2 53820  53.2166  84.9256 0001092  88.8614 271.2503 15.08828997 42287,6917.914,95.438,540.534,539.024,0.0
53820.0,STARLINK-4758,PAYLOAD,2023-06-20 10:55:48,15.08834989,0.0001121,53.2162,83.1425,91.2452,268.8668,7.7193e-05,9.41e-06,0.0,0 STARLINK-4758,1 53820U 22114C   23171.45542256  .00000941  00000-0  77193-4 0  9990,2 53820  53.2162  83.1425 0001121  91.2452 268.8668 15.08834989 42881,6917.896,95.438,540.536,538.985,0.0
53820.0,STARLINK-4758,PAYLOAD,2023-06-20 17:17:21,15.08836048,0.0001166,53.2164,81.9524,90.1299,269.9827,5.8762e-05,6.47e-06,0.0,0 STARLINK-4758,1 53820U 22114C   23171.72038360  .00000647  00000-0  58762-4 0  9990,2 53820  53.2164  81.9524 0001166  90.1299 269.9827 15.08836048 42927,6917.892,95.438,540.564,538.951,0.0
53820.0,STARLINK-4758,PAYLOAD,2023-06-21 01:14:16,15.08848959,0.0001147,53.2164,80.466,90.5467,269.5657,8.8121e-05,1.115e-05,0.0,0 STARLINK-4758,1 53820U 22114C   23172.05157487  .00001115  00000-0  88121-4 0  9992,2 53820  53.2164  80.4660 0001147  90.5467 269.5657 15.08848959 42439,6917.853,95.437,540.511,538.925,0.0
53820.0,STARLINK-4758,PAYLOAD,2023-06-21 10:46:34,15.08846208,0.0001106,53.2166,78.6778,97.9774,262.1344,5.091e-05,5.23e-06,0.0,0 STARLINK-4758,1 53820U 22114C   23172.44901506  .00000523  00000-0  50910-4 0  9991,2 53820  53.2166  78.6778 0001106  97.9774 262.1344 15.08846208 43031,6917.861,95.437,540.492,538.961,0.0
53820.0,STARLINK-4758,PAYLOAD,2023-06-22 02:40:27,15.08836322,0.00012,53.2163,75.7098,82.0331,278.0797,0.00011302,1.511e-05,0.0,0 STARLINK-4758,1 53820U 22114C   23173.11142446  .00001511  00000-0  11302-3 0  9995,2 53820  53.2163  75.7098 0001200  82.0331 278.0797 15.08836322 42594,6917.892,95.438,540.587,538.926,0.0
53820.0,STARLINK-4758,PAYLOAD,2023-06-23 00:55:50,15.08849599,0.0001203,53.2157,71.5451,89.6014,270.5116,0.00023363,3.433e-05,0.0,0 STARLINK-4758,1 53820U 22114C   23174.03877873  .00003433  00000-0  23363-3 0  9991,2 53820  53.2157  71.5451 0001203  89.6014 270.5116 15.08849599 42736,6917.851,95.437,540.548,538.884,0.0
53820.0,STARLINK-4758,PAYLOAD,2023-06-23 10:28:09,15.08844192,0.0001128,53.2163,69.7602,85.5269,274.5852,7.9132e-05,9.72e-06,0.0,0 STARLINK-4758,1 53820U 22114C   23174.43622107  .00000972  00000-0  79132-4 0  9994,2 53820  53.2163  69.7602 0001128  85.5269 274.5852 15.08844192 42794,6917.868,95.437,540.513,538.952,0.0
53820.0,STARLINK-4758,PAYLOAD,2023-06-24 16:40:29,15.08841849,0.0001343,53.2155,64.1095,89.0239,271.0907,9.4898e-05,1.223e-05,0.0,0 STARLINK-4758,1 53820U 22114C   23175.69478504  .00001223  00000-0  94898-4 0  9999,2 53820  53.2155  64.1095 0001343  89.0239 271.0907 15.08841849 42985,6917.875,95.437,540.669,538.811,0.0
53820.0,STARLINK-4758,PAYLOAD,2023-06-25 02:12:47,15.0885102,0.000124,53.2158,62.3246,96.7559,263.3574,0.00026758,3.974e-05,0.0,0 STARLINK-4758,1 53820U 22114C   23176.09222008  .00003974  00000-0  26758-3 0  9994,2 53820  53.2158  62.3246 0001240  96.7559 263.3574 15.08851020 43046,6917.847,95.437,540.57,538.854,0.0
53820.0,STARLINK-4758,PAYLOAD,2023-06-25 16:31:16,15.08838196,0.0001324,53.2154,59.6477,94.8439,265.2704,6.2478e-05,7.07e-06,0.0,0 STARLINK-4758,1 53820U 22114C   23176.68838577  .00000707  00000-0  62478-4 0  9994,2 53820  53.2154  59.6477 0001324  94.8439 265.2704 15.08838196 43131,6917.886,95.438,540.667,538.835,0.0
